IRIDIUM 144             
1 43249U 18030A   26015.92591861  .00000122  00000+0  36420-4 0  9992
2 43249  86.3984 354.0509 0002213  83.3311 276.8137 14.34217130408311
IRIDIUM 149             
1 43250U 18030B   26015.93226193  .00000012  00000+0 -26442-5 0  9991
2 43250  86.3979 354.0174 0002100  86.5720 273.5716 14.34217674408331
IRIDIUM 157             
1 43251U 18030C   26015.46290355  .00000161  00000+0  50310-4 0  9995
2 43251  86.3980 354.2629 0002130  87.4184 272.7255 14.34216290408240
IRIDIUM 140             
1 43252U 18030D   26015.90054840  .00000061  00000+0  14694-4 0  9996
2 43252  86.3982 354.0930 0002294  84.8139 275.3319 14.34216720408369
IRIDIUM 145             
1 43253U 18030E   26015.46924959  .00000182  00000+0  57790-4 0  9993
2 43253  86.3980 354.2457 0002304  78.4647 281.6808 14.34217029408231
IRIDIUM 146             
1 43254U 18030F   26015.93860464  .00000012  00000+0 -29449-5 0  9990
2 43254  86.3982 354.0627 0002065  81.8252 278.3178 14.34217458408313
IRIDIUM 148             
1 43255U 18030G   26015.97665985 -.00000029  00000+0 -17484-4 0  9990
2 43255  86.3983 354.0875 0001963  85.5860 274.5560 14.34217430408359
IRIDIUM 142             
1 43256U 18030H   26015.87518819  .00000194  00000+0  62224-4 0  9996
2 43256  86.3981 354.0243 0002281  77.6187 282.5264 14.34218340408301
